     2.10           G: GLONASS NAV DATA                     RINEX VERSION / TYPE
teqc  2015Jun23                         20220307 01:25:43UTCPGM / RUN BY / DATE
Linux 2.4.21-27.ELsmp|Opteron|gcc -static|Linux x86_64|=+   COMMENT
  2022     2    11   -4.656612873077D-10                    CORR TO SYSTEM TIME
                                                            END OF HEADER
 3 22  2 12  2 15  0.0 5.134940147400D-05 0.000000000000D+00 7.200000000000D+03
   -1.488874121094D+04-2.472152709961D-01-9.313225746155D-10 0.000000000000D+00
    2.026155957031D+04 5.318317413330D-01 1.862645149231D-09 5.000000000000D+00
    4.159865234375D+03-3.517629623413D+00-1.862645149231D-09 0.000000000000D+00
 4 22  2 12  2 15  0.0 1.273201778531D-04 1.818989403546D-12 7.200000000000D+03
   -3.276864257812D+03-1.593964576721D+00-0.000000000000D+00 0.000000000000D+00
    1.707083544922D+04 1.998964309692D+00 0.000000000000D+00 6.000000000000D+00
    1.869160791016D+04-2.109152793884D+00-2.793967723846D-09 0.000000000000D+00
 2 22  2 12  2 15  0.0 5.093589425087D-04 0.000000000000D+00 7.200000000000D+03
   -1.845686376953D+04 1.280294418335D+00-9.313225746155D-10 0.000000000000D+00
    1.183756054688D+04-1.247550964355D+00 2.793967723846D-09-4.000000000000D+00
   -1.293540429688D+04-2.964505195618D+00-9.313225746155D-10 0.000000000000D+00
14 22  2 12  2 15  0.0 7.423665374517D-05 0.000000000000D+00 7.200000000000D+03
   -2.606101562500D+03-7.338905334473D-01-0.000000000000D+00 0.000000000000D+00
    1.817966015625D+04-2.310656547546D+00 0.000000000000D+00-7.000000000000D+00
    1.771228466797D+04 2.263195991516D+00-2.793967723846D-09 0.000000000000D+00
15 22  2 12  2 15  0.0 9.825453162193D-05-0.000000000000D+00 7.200000000000D+03
    7.334565429688D+03 3.095531463623D-02-9.313225746155D-10 0.000000000000D+00
    2.430983789062D+04-3.607053756714D-01 9.313225746155D-10 0.000000000000D+00
    2.422693359375D+03 3.544590950012D+00-1.862645149231D-09 0.000000000000D+00
 3 22  2 12  2 45  0.0 5.134940147400D-05 0.000000000000D+00 9.000000000000D+03
   -1.480591699219D+04 3.079118728638D-01-0.000000000000D+00 0.000000000000D+00
    2.060687988281D+04-1.746597290039D-01 2.793967723846D-09 5.000000000000D+00
   -2.251123535156D+03-3.559281349182D+00-1.862645149231D-09 0.000000000000D+00
 4 22  2 12  2 45  0.0 1.273239031434D-04 1.818989403546D-12 9.000000000000D+03
   -5.566535156250D+03-9.503021240234D-01-0.000000000000D+00 0.000000000000D+00
    2.044379736328D+04 1.701490402222D+00 9.313225746155D-10 6.000000000000D+00
    1.422280078125D+04-2.824097633362D+00-2.793967723846D-09 0.000000000000D+00
 2 22  2 12  2 45  0.0 5.093598738313D-04 0.000000000000D+00 9.000000000000D+03
   -1.596595312500D+04 1.441714286804D+00-0.000000000000D+00 0.000000000000D+00
    8.936260253906D+03-1.966771125793D+00 2.793967723846D-09-4.000000000000D+00
   -1.769908349609D+04-2.293886184692D+00-0.000000000000D+00 0.000000000000D+00
14 22  2 12  2 45  0.0 7.423758506775D-05 0.000000000000D+00 9.000000000000D+03
   -4.405847656250D+03-1.267803192139D+00-0.000000000000D+00 0.000000000000D+00
    1.372918994141D+04-2.585886955261D+00-0.000000000000D+00-7.000000000000D+00
    2.104930761719D+04 1.420552253723D+00-2.793967723846D-09 0.000000000000D+00
15 22  2 12  2 45  0.0 9.825453162193D-05-0.000000000000D+00 9.000000000000D+03
    7.021579589844D+03-4.100112915039D-01-9.313225746155D-10 0.000000000000D+00
    2.295802246094D+04-1.114284515381D+00 9.313225746155D-10 0.000000000000D+00
    8.626849121094D+03 3.304167747498D+00-2.793967723846D-09 0.000000000000D+00
17 22  2 12  2 45  0.0 5.008280277252D-04 2.728484105319D-12 9.990000000000D+03
   -1.602006152344D+04-2.531055450439D+00-0.000000000000D+00 0.000000000000D+00
    7.393540039062D+03-1.675510406494D-02 2.793967723846D-09 4.000000000000D+00
   -1.842314355469D+04 2.189562797546D+00-0.000000000000D+00 0.000000000000D+00
18 22  2 12  2 45  0.0 1.069521531463D-04 9.094947017729D-13 1.005000000000D+04
    1.642571777344D+03-3.171924591064D+00-9.313225746155D-10 0.000000000000D+00
    1.052624316406D+04-2.423114776611D-01 2.793967723846D-09-3.000000000000D+00
   -2.316009863281D+04-3.295793533325D-01 0.000000000000D+00 0.000000000000D+00
 3 22  2 12  3 15  0.0 5.134940147400D-05-0.000000000000D+00 1.080000000000D+04
   -1.391237402344D+04 6.442108154297D-01-0.000000000000D+00 0.000000000000D+00
    1.956749853516D+04-9.892368316650D-01 2.793967723846D-09 5.000000000000D+00
   -8.487247558594D+03-3.324499130249D+00-9.313225746155D-10 0.000000000000D+00
 4 22  2 12  3 15  0.0 1.273266971111D-04 1.818989403546D-12 1.080000000000D+04
   -6.731817382812D+03-3.626165390015D-01-0.000000000000D+00 0.000000000000D+00
    2.303553125000D+04 1.137724876404D+00 1.862645149231D-09 6.000000000000D+00
    8.655732421875D+03-3.321475982666D+00-2.793967723846D-09 0.000000000000D+00
15 22  2 12  3 15  0.0 9.825360029936D-05-0.000000000000D+00 1.080000000000D+04
    5.769681152344D+03-9.980630874634D-01-0.000000000000D+00 0.000000000000D+00
    2.042140039062D+04-1.664052963257D+00 0.000000000000D+00 0.000000000000D+00
    1.416413916016D+04 2.808478355408D+00-2.793967723846D-09 0.000000000000D+00
17 22  2 12  3 15  0.0 5.008336156607D-04 2.728484105319D-12 1.080000000000D+04
   -2.002198486328D+04-1.878561019897D+00 0.000000000000D+00 0.000000000000D+00
    7.689154785156D+03 3.149471282959D-01 2.793967723846D-09 4.000000000000D+00
   -1.382088623047D+04 2.890799522400D+00-0.000000000000D+00 0.000000000000D+00
18 22  2 12  3 15  0.0 1.069540157914D-04 9.094947017729D-13 1.080000000000D+04
   -4.077895019531D+03-3.130763053894D+00-0.000000000000D+00 0.000000000000D+00
    1.052518554688D+04 2.392616271973D-01 3.725290298462D-09-3.000000000000D+00
   -2.284863037109D+04 6.735677719116D-01 0.000000000000D+00 0.000000000000D+00
14 22  2 12  3 15  0.0 7.423758506775D-05 0.000000000000D+00 1.083000000000D+04
   -7.144534667969D+03-1.759069442749D+00 0.000000000000D+00 0.000000000000D+00
    9.046534179688D+03-2.569214820862D+00-9.313225746155D-10-7.000000000000D+00
    2.276023681641D+04 4.681329727173D-01-1.862645149231D-09 0.000000000000D+00
 5 22  2 12  3 15  0.0 8.755363523960D-05 9.094947017729D-13 1.101000000000D+04
    4.161605957031D+03-1.199467658997D+00-0.000000000000D+00 0.000000000000D+00
    1.382132275391D+04 2.618695259094D+00-0.000000000000D+00 1.000000000000D+00
    2.103587158203D+04-1.486327171326D+00-2.793967723846D-09 0.000000000000D+00
17 22  2 12  3 45  0.0 5.008401349187D-04 2.728484105319D-12 1.260000000000D+04
   -2.267878271484D+04-1.053436279297D+00 9.313225746155D-10 0.000000000000D+00
    8.398177246094D+03 4.326896667480D-01 1.862645149231D-09 4.000000000000D+00
   -8.150812011719D+03 3.368372917175D+00-0.000000000000D+00 0.000000000000D+00
 3 22  2 12  3 45  0.0 5.134940147400D-05-0.000000000000D+00 1.260000000000D+04
   -1.263969921875D+04 7.271595001221D-01 0.000000000000D+00 0.000000000000D+00
    1.704817919922D+04-1.799460411072D+00 3.725290298462D-09 5.000000000000D+00
   -1.406373144531D+04-2.831091880798D+00-0.000000000000D+00 0.000000000000D+00
 4 22  2 12  3 45  0.0 1.273332163692D-04 1.818989403546D-12 1.260000000000D+04
   -6.964758300781D+03 7.141971588135D-02 0.000000000000D+00 0.000000000000D+00
    2.441607519531D+04 3.692464828491D-01 2.793967723846D-09 6.000000000000D+00
    2.419717285156D+03-3.562466621399D+00-1.862645149231D-09 0.000000000000D+00
 5 22  2 12  3 45  0.0 8.755456656218D-05 9.094947017729D-13 1.260000000000D+04
    2.496841796875D+03-6.540641784668D-01-0.000000000000D+00 0.000000000000D+00
    1.831000244141D+04 2.319491386414D+00 0.000000000000D+00 1.000000000000D+00
    1.758212548828D+04-2.326347351074D+00-2.793967723846D-09 0.000000000000D+00
18 22  2 12  3 45  0.0 1.069549471140D-04 0.000000000000D+00 1.260000000000D+04
   -9.441875000000D+03-2.780694007874D+00 0.000000000000D+00 0.000000000000D+00
    1.134738183594D+04 6.542215347290D-01 3.725290298462D-09-3.000000000000D+00
   -2.076612890625D+04 1.625383377075D+00 0.000000000000D+00 0.000000000000D+00
15 22  2 12  3 45  0.0 9.825360029936D-05-0.000000000000D+00 1.263000000000D+04
    3.398366210938D+03-1.635989189148D+00-0.000000000000D+00 0.000000000000D+00
    1.712612744141D+04-1.950803756714D+00 0.000000000000D+00 0.000000000000D+00
    1.860697802734D+04 2.096030235291D+00-2.793967723846D-09 0.000000000000D+00
17 22  2 12  4 15  0.0 5.008466541767D-04 2.728484105319D-12 1.440000000000D+04
   -2.377753906250D+04-1.672077178955D-01 9.313225746155D-10 0.000000000000D+00
    9.094741699219D+03 2.984952926636D-01 9.313225746155D-10 4.000000000000D+00
   -1.851311523438D+03 3.585674285889D+00-0.000000000000D+00 0.000000000000D+00
 3 22  2 12  4 15  0.0 5.134940147400D-05-0.000000000000D+00 1.440000000000D+04
   -1.144089013672D+04 5.677614212036D-01 9.313225746155D-10 0.000000000000D+00
    1.316159863281D+04-2.489966392517D+00 2.793967723846D-09 5.000000000000D+00
   -1.854663427734D+04-2.117366790771D+00 0.000000000000D+00 0.000000000000D+00
 4 22  2 12  4 15  0.0 1.273360103369D-04 1.818989403546D-12 1.440000000000D+04
   -6.608347656250D+03 2.841262817383D-01 0.000000000000D+00 0.000000000000D+00
    2.429921777344D+04-5.079116821289D-01 2.793967723846D-09 6.000000000000D+00
   -4.003418457031D+03-3.527958869934D+00-1.862645149231D-09 0.000000000000D+00
 5 22  2 12  4 15  0.0 8.755456656218D-05 9.094947017729D-13 1.440000000000D+04
    1.761192382812D+03-1.844034194946D-01 0.000000000000D+00 0.000000000000D+00
    2.200553125000D+04 1.745159149170D+00 9.313225746155D-10 1.000000000000D+00
    1.276893212891D+04-2.986974716187D+00-2.793967723846D-09 0.000000000000D+00
15 22  2 12  4 15  0.0 9.825360029936D-05-0.000000000000D+00 1.440000000000D+04
   -8.364550781250D+01-2.213712692261D+00-0.000000000000D+00 0.000000000000D+00
    1.356674658203D+04-1.958695411682D+00-0.000000000000D+00 0.000000000000D+00
    2.161262939453D+04 1.221968650818D+00-2.793967723846D-09 0.000000000000D+00
